#cV2022  2 12  0  0  0.00000000    1898   SLR   ECF FIT NSGF
## 2196 518400.00000000   180.00000000 59622 0.0000000000000
+    1   L56  0  0  0  0  0  0  0  0  0  0  0  0  0  0  0  0
+          0  0  0  0  0  0  0  0  0  0  0  0  0  0  0  0  0
+          0  0  0  0  0  0  0  0  0  0  0  0  0  0  0  0  0
+          0  0  0  0  0  0  0  0  0  0  0  0  0  0  0  0  0
+          0  0  0  0  0  0  0  0  0  0  0  0  0  0  0  0  0
++         0  0  0  0  0  0  0  0  0  0  0  0  0  0  0  0  0
++         0  0  0  0  0  0  0  0  0  0  0  0  0  0  0  0  0
++         0  0  0  0  0  0  0  0  0  0  0  0  0  0  0  0  0
++         0  0  0  0  0  0  0  0  0  0  0  0  0  0  0  0  0
++         0  0  0  0  0  0  0  0  0  0  0  0  0  0  0  0  0
%c L  cc UTC ccc cccc cccc cccc cccc ccccc ccccc ccccc ccccc
%c cc cc ccc ccc cccc cccc cccc cccc ccccc ccccc ccccc ccccc
%f  0.0000000  0.000000000  0.00000000000  0.000000000000000
%f  0.0000000  0.000000000  0.00000000000  0.000000000000000
%i    0    0    0    0      0      0      0      0         0
%i    0    0    0    0      0      0      0      0         0
/*                                                          
/* Earth-centered-fixed orbital predictions from SGF ILRS AC
/* The underlying ECF frame is that of IERS/ITRF            
/* Note: Solution based on 4-day long arc                   
/*                                                          
*  2022  2 13 10  0  0.00000000
PL56   4480.609712  -4908.686543   2699.252603
VL56   5866.294000 -32233.015000 -68082.466000
*  2022  2 13 10  3  0.00000000
PL56   4500.960888  -5400.922909   1433.703001
VL56  -3567.727500 -22260.025000 -72122.651000
*  2022  2 13 10  6  0.00000000
PL56   4354.587355  -5703.968488    117.997072
VL56 -12599.908000 -11275.392000 -73639.207000
*  2022  2 13 10  9  0.00000000
PL56   4051.810292  -5803.167821  -1201.841992
VL56 -20892.310000    319.726840 -72581.172000
*  2022  2 13 10 12  0.00000000
PL56   3608.712786  -5691.373262  -2479.711423
VL56 -28144.899000  12095.230000 -68990.609000
*  2022  2 13 10 15  0.00000000
PL56   3046.348238  -5369.308703  -3671.088548
VL56 -34107.140000  23609.506000 -63000.310000
*  2022  2 13 10 18  0.00000000
PL56   2389.761261  -4845.613282  -4734.612313
VL56 -38587.349000  34427.596000 -54827.452000
*  2022  2 13 10 21  0.00000000
PL56   1666.871935  -4136.568600  -5633.519309
VL56 -41458.438000  44138.109000 -44763.794000
*  2022  2 13 10 24  0.00000000
PL56    907.286695  -3265.532864  -6336.880936
VL56 -42660.268000  52368.472000 -33163.772000
*  2022  2 13 10 27  0.00000000
PL56    141.090590  -2262.119772  -6820.611638
VL56 -42199.527000  58798.247000 -20431.013000
*  2022  2 13 10 30  0.00000000
PL56   -602.331463  -1161.157873  -7068.229365
VL56 -40146.625000  63170.111000  -7004.287700
*  2022  2 13 10 33  0.00000000
PL56  -1295.398700     -1.471237  -7071.357892
VL56 -36630.618000  65298.683000   6656.915300
*  2022  2 13 10 36  0.00000000
PL56  -1913.332357   1175.475897  -6829.970713
VL56 -31832.538000  65076.878000  20086.695000
*  2022  2 13 10 39  0.00000000
PL56  -2435.020638   2327.031684  -6352.379009
VL56 -25977.355000  62480.420000  32826.857000
*  2022  2 13 10 42  0.00000000
PL56  -2843.727772   3410.870232  -5654.969159
VL56 -19324.759000  57570.042000  44440.696000
*  2022  2 13 10 45  0.00000000
PL56  -3127.631223   4386.528451  -4761.689897
VL56 -12159.192000  50491.715000  54526.959000
*  2022  2 13 10 48  0.00000000
PL56  -3280.169732   5216.919038  -3703.287430
VL56  -4778.865100  41473.799000  62733.897000
*  2022  2 13 10 51  0.00000000
PL56  -3300.184120   5869.760203  -2516.297478
VL56   2516.177200  30820.588000  68771.943000
*  2022  2 13 10 54  0.00000000
PL56  -3191.844083   6318.865007  -1241.823365
VL56   9435.859900  18903.238000  72424.983000
*  2022  2 13 10 57  0.00000000
PL56  -2964.360279   6545.234500     75.873387
VL56  15712.081000   6146.798700  73559.519000
*  2022  2 13 11  0  0.00000000
PL56  -2631.490778   6537.893101   1390.921113
VL56  21109.460000  -6985.130600  72130.893000
*  2022  2 13 11  3  0.00000000
PL56  -2210.859409   6294.421202   2657.471911
VL56  25435.316000 -20008.667000  68186.407000
*  2022  2 13 11  6  0.00000000
PL56  -1723.112027   5821.140252   3831.343005
VL56  28547.564000 -32439.673000  61863.206000
*  2022  2 13 11  9  0.00000000
PL56  -1190.962808   5132.951011   4871.587501
VL56  30359.137000 -43812.255000  53382.558000
*  2022  2 13 11 12  0.00000000
PL56   -638.176374   4252.836826   5741.939498
VL56  30840.515000 -53697.101000  43041.480000
*  2022  2 13 11 15  0.00000000
PL56    -88.530943   3211.054781   6412.076102
VL56  30019.347000 -61717.766000  31201.276000
*  2022  2 13 11 18  0.00000000
PL56    435.184965   2044.056443   6858.656517
VL56  27977.319000 -67564.527000  18274.124000
*  2022  2 13 11 21  0.00000000
PL56    912.103337    793.183544   7066.111431
VL56  24845.152000 -71005.482000   4708.829000
*  2022  2 13 11 24  0.00000000
PL56   1324.100290   -496.812139   7027.165849
VL56  20795.756000 -71894.724000  -9024.335700
*  2022  2 13 11 27  0.00000000
PL56   1656.483674  -1779.373753   6743.089022
VL56  16036.052000 -70178.372000 -22448.859000
*  2022  2 13 11 30  0.00000000
PL56   1898.522876  -3007.824880   6223.666765
VL56  10797.651000 -65897.257000 -35097.601000
*  2022  2 13 11 33  0.00000000
PL56   2043.803500  -4137.083030   5486.890535
VL56   5326.774700 -59187.328000 -46528.576000
*  2022  2 13 11 36  0.00000000
PL56   2090.393737  -5125.341155   4558.364182
VL56   -126.494730 -50275.736000 -56340.397000
*  2022  2 13 11 39  0.00000000
PL56   2040.819172  -5935.656699   3470.443205
VL56  -5318.761400 -39474.500000 -64186.679000
*  2022  2 13 11 42  0.00000000
PL56   1901.844443  -6537.389533   2261.119866
VL56 -10024.212000 -27169.746000 -69789.597000
*  2022  2 13 11 45  0.00000000
PL56   1684.066208  -6907.415580    972.685912
VL56 -14044.413000 -13807.799000 -72950.789000
*  2022  2 13 11 48  0.00000000
PL56   1401.338812  -7031.061054   -349.775841
VL56 -17217.189000    121.705730 -73559.601000
*  2022  2 13 11 51  0.00000000
PL56   1070.055051  -6902.709883  -1660.019752
VL56 -19423.687000  14105.425000 -71598.031000
*  2022  2 13 11 54  0.00000000
PL56    708.316779  -6526.037566  -2912.314426
VL56 -20593.431000  27627.881000 -67140.866000
*  2022  2 13 11 57  0.00000000
PL56    335.045025  -5913.865094  -4063.080979
VL56 -20705.988000  40191.775000 -60351.453000
*  2022  2 13 12  0  0.00000000
PL56    -30.923080  -5087.654884  -5072.427885
VL56 -19790.852000  51337.289000 -51474.582000
*  2022  2 13 12  3  0.00000000
PL56   -371.710009  -4076.679151  -5905.521150
VL56 -17924.527000  60659.019000 -40825.524000
*  2022  2 13 12  6  0.00000000
PL56   -671.203705  -2916.911412  -6533.744879
VL56 -15225.681000  67819.856000 -28777.648000
*  2022  2 13 12  9  0.00000000
PL56   -915.759587  -1649.695485  -6935.623878
VL56 -11848.616000  72561.727000 -15748.644000
*  2022  2 13 12 12  0.00000000
PL56  -1094.773925   -320.250114  -7097.492441
VL56  -7975.548300  74713.177000  -2186.189500
*  2022  2 13 12 15  0.00000000
PL56  -1201.110702   1023.937038  -7013.905406
VL56  -3808.075800  74194.112000  11446.450000
*  2022  2 13 12 18  0.00000000
PL56  -1231.369923   2334.775888  -6687.791204
VL56    441.812350  71017.859000  24684.449000
*  2022  2 13 12 21  0.00000000
PL56  -1185.991912   3565.256879  -6130.352687
VL56   4560.926300  65290.907000  37075.523000
*  2022  2 13 12 24  0.00000000
PL56  -1069.195569   4671.110969  -5360.717148
VL56   8344.151700  57210.588000  48193.859000
*  2022  2 13 12 27  0.00000000
PL56   -888.751454   5612.398925  -4405.333094
VL56  11603.435000  47059.613000  57654.118000
*  2022  2 13 12 30  0.00000000
PL56   -655.597141   6354.977625  -3297.118375
VL56  14176.309000  35197.570000  65125.015000
*  2022  2 13 12 33  0.00000000
PL56   -383.306042   6871.784101  -2074.373188
VL56  15933.559000  22049.343000  70341.703000
*  2022  2 13 12 36  0.00000000
PL56    -87.429199   7143.882276   -779.485305
VL56  16785.588000   8090.322500  73116.484000
*  2022  2 13 12 39  0.00000000
PL56    215.262722   7161.218766    542.536087
VL56  16687.108000  -6171.044600  73346.905000
*  2022  2 13 12 42  0.00000000
PL56    507.603881   6923.042999   1845.646203
VL56  15639.714000 -20212.963000  71020.861000
*  2022  2 13 12 45  0.00000000
PL56    772.880721   6437.959937   3084.405491
VL56  13691.855000 -33521.171000  66217.501000
*  2022  2 13 12 48  0.00000000
PL56    995.657803   5723.612224   4215.599019
VL56  10936.583000 -45608.954000  59104.141000
*  2022  2 13 12 51  0.00000000
PL56   1162.546955   4806.013630   5199.772292
VL56   7507.377800 -56036.014000  49929.937000
*  2022  2 13 12 54  0.00000000
PL56   1262.879024   3718.554723   6002.623996
VL56   3571.732200 -64425.526000  39016.199000
*  2022  2 13 12 57  0.00000000
PL56   1289.247233   2500.738260   6596.188812
VL56   -676.831920 -70477.121000  26743.481000
*  2022  2 13 13  0  0.00000000
PL56   1237.900359   1196.709430   6959.791067
VL56  -5027.213000 -73976.695000  13538.900000
*  2022  2 13 13  3  0.00000000
PL56   1108.969065   -146.368507   7080.741914
VL56  -9260.727400 -74803.776000   -139.635160
*  2022  2 13 13  6  0.00000000
PL56    906.518149  -1480.028378   6954.766100
VL56 -13160.642000 -72934.456000 -13817.768000
*  2022  2 13 13  9  0.00000000
PL56    638.421020  -2756.253388   6586.156608
VL56 -16522.139000 -68442.532000 -27020.509000
*  2022  2 13 13 12  0.00000000
PL56    316.058405  -3929.218949   5987.645044
VL56 -19161.866000 -61497.062000 -39287.991000
*  2022  2 13 13 15  0.00000000
PL56    -46.147933  -4956.959022   5179.984697
VL56 -20926.606000 -52356.422000 -50191.137000
*  2022  2 13 13 18  0.00000000
PL56   -431.347606  -5802.900339   4191.265015
VL56 -21700.950000 -41359.925000 -59346.268000
*  2022  2 13 13 21  0.00000000
PL56   -821.003662  -6437.222349   3055.964358
VL56 -21413.889000 -28916.282000 -66429.630000
EOF
